[{"OBJECT_NAME":"STARLINK-1320","OBJECT_ID":"2020-025AT","EPOCH":"2026-03-09T22:25:05.757888","MEAN_MOTION":15.68740025,"ECCENTRICITY":0.00073169,"INCLINATION":53.0503,"RA_OF_ASC_NODE":344.5237,"ARG_OF_PERICENTER":58.0358,"MEAN_ANOMALY":302.1368,"EPHEMERIS_TYPE":0,"CLASSIFICATION_TYPE":"U","NORAD_CAT_ID":45572,"ELEMENT_SET_NO":999,"REV_AT_EPOCH":32684,"BSTAR":0.00068865274,"MEAN_MOTION_DOT":0.00080462,"MEAN_MOTION_DDOT":0},{"OBJECT_NAME":"STARLINK-11129 [DTC]","OBJECT_ID":"2024-112A","EPOCH":"2026-03-09T17:38:22.865568","MEAN_MOTION":15.69703212,"ECCENTRICITY":6.664e-5,"INCLINATION":53.1587,"RA_OF_ASC_NODE":266.3726,"ARG_OF_PERICENTER":118.5927,"MEAN_ANOMALY":241.5158,"EPHEMERIS_TYPE":0,"CLASSIFICATION_TYPE":"U","NORAD_CAT_ID":60038,"ELEMENT_SET_NO":999,"REV_AT_EPOCH":10098,"BSTAR":-4.418583e-6,"MEAN_MOTION_DOT":-1.123e-5,"MEAN_MOTION_DDOT":0}]
